[{"OBJECT_NAME":"STARLINK-36879","OBJECT_ID":"2026-038X","EPOCH":"2026-03-24T10:46:01.740000","MEAN_MOTION":15.49226708,"ECCENTRICITY":8.99e-5,"INCLINATION":97.2871,"RA_OF_ASC_NODE":94.2339,"ARG_OF_PERICENTER":70.6342,"MEAN_ANOMALY":289.5006,"EPHEMERIS_TYPE":0,"CLASSIFICATION_TYPE":"U","NORAD_CAT_ID":67982,"ELEMENT_SET_NO":999,"REV_AT_EPOCH":549,"BSTAR":0.0011273,"MEAN_MOTION_DOT":0.00061783,"MEAN_MOTION_DDOT":0},{"OBJECT_NAME":"STARLINK-36867","OBJECT_ID":"2026-038Y","EPOCH":"2026-03-24T11:59:56.130144","MEAN_MOTION":15.49193586,"ECCENTRICITY":0.0001366,"INCLINATION":97.2861,"RA_OF_ASC_NODE":94.3173,"ARG_OF_PERICENTER":74.4568,"MEAN_ANOMALY":285.6834,"EPHEMERIS_TYPE":0,"CLASSIFICATION_TYPE":"U","NORAD_CAT_ID":67983,"ELEMENT_SET_NO":999,"REV_AT_EPOCH":550,"BSTAR":0.0010613,"MEAN_MOTION_DOT":0.00058068,"MEAN_MOTION_DDOT":0},{"OBJECT_NAME":"STARLINK-36266","OBJECT_ID":"2026-038Z","EPOCH":"2026-03-24T12:00:01.999296","MEAN_MOTION":15.44510338,"ECCENTRICITY":0.0001791,"INCLINATION":97.2853,"RA_OF_ASC_NODE":94.4651,"ARG_OF_PERICENTER":105.3195,"MEAN_ANOMALY":231.9954,"EPHEMERIS_TYPE":0,"CLASSIFICATION_TYPE":"U","NORAD_CAT_ID":67984,"ELEMENT_SET_NO":999,"REV_AT_EPOCH":555,"BSTAR":-0.052858,"MEAN_MOTION_DOT":-0.02163329,"MEAN_MOTION_DDOT":0},{"OBJECT_NAME":"STARLINK-36802","OBJECT_ID":"2026-038AA","EPOCH":"2026-03-24T04:31:38.642016","MEAN_MOTION":15.75354715,"ECCENTRICITY":0.00020321,"INCLINATION":97.2888,"RA_OF_ASC_NODE":94.2704,"ARG_OF_PERICENTER":47.7218,"MEAN_ANOMALY":312.4219,"EPHEMERIS_TYPE":0,"CLASSIFICATION_TYPE":"U","NORAD_CAT_ID":67985,"ELEMENT_SET_NO":999,"REV_AT_EPOCH":547,"BSTAR":0.0012485506,"MEAN_MOTION_DOT":0.00191706,"MEAN_MOTION_DDOT":0},{"OBJECT_NAME":"STARLINK-36535","OBJECT_ID":"2026-039A","EPOCH":"2026-03-24T12:00:01.999296","MEAN_MOTION":15.41047292,"ECCENTRICITY":0.0001105,"INCLINATION":42.9998,"RA_OF_ASC_NODE":326.0307,"ARG_OF_PERICENTER":269.3643,"MEAN_ANOMALY":318.5292,"EPHEMERIS_TYPE":0,"CLASSIFICATION_TYPE":"U","NORAD_CAT_ID":67986,"ELEMENT_SET_NO":999,"REV_AT_EPOCH":525,"BSTAR":-0.049367,"MEAN_MOTION_DOT":-0.01872293,"MEAN_MOTION_DDOT":0},{"OBJECT_NAME":"STARLINK-36744","OBJECT_ID":"2026-039B","EPOCH":"2026-03-24T12:00:01.999296","MEAN_MOTION":15.43294403,"ECCENTRICITY":0.0001302,"INCLINATION":42.999,"RA_OF_ASC_NODE":325.8813,"ARG_OF_PERICENTER":241.2246,"MEAN_ANOMALY":46.9903,"EPHEMERIS_TYPE":0,"CLASSIFICATION_TYPE":"U","NORAD_CAT_ID":67987,"ELEMENT_SET_NO":999,"REV_AT_EPOCH":525,"BSTAR":-0.045413,"MEAN_MOTION_DOT":-0.01859818,"MEAN_MOTION_DDOT":0},{"OBJECT_NAME":"STARLINK-36734","OBJECT_ID":"2026-039C","EPOCH":"2026-03-24T09:37:29.897472","MEAN_MOTION":15.50608586,"ECCENTRICITY":8.72e-5,"INCLINATION":42.9959,"RA_OF_ASC_NODE":327.582,"ARG_OF_PERICENTER":249.0868,"MEAN_ANOMALY":110.9899,"EPHEMERIS_TYPE":0,"CLASSIFICATION_TYPE":"U","NORAD_CAT_ID":67988,"ELEMENT_SET_NO":999,"REV_AT_EPOCH":393,"BSTAR":0.000989,"MEAN_MOTION_DOT":0.00058172,"MEAN_MOTION_DDOT":0},{"OBJECT_NAME":"STARLINK-36957","OBJECT_ID":"2026-039D","EPOCH":"2026-03-24T12:00:01.999296","MEAN_MOTION":15.45931193,"ECCENTRICITY":0.0001251,"INCLINATION":42.9996,"RA_OF_ASC_NODE":325.9024,"ARG_OF_PERICENTER":246.7237,"MEAN_ANOMALY":32.6553,"EPHEMERIS_TYPE":0,"CLASSIFICATION_TYPE":"U","NORAD_CAT_ID":67989,"ELEMENT_SET_NO":999,"REV_AT_EPOCH":525,"BSTAR":-0.041935,"MEAN_MOTION_DOT":-0.0187835,"MEAN_MOTION_DDOT":0},{"OBJECT_NAME":"STARLINK-36951","OBJECT_ID":"2026-039E","EPOCH":"2026-03-24T12:00:01.999296","MEAN_MOTION":15.50593576,"ECCENTRICITY":0.0001652,"INCLINATION":43,"RA_OF_ASC_NODE":326.1347,"ARG_OF_PERICENTER":263.1836,"MEAN_ANOMALY":281.3106,"EPHEMERIS_TYPE":0,"CLASSIFICATION_TYPE":"U","NORAD_CAT_ID":67990,"ELEMENT_SET_NO":999,"REV_AT_EPOCH":525,"BSTAR":-0.00071377,"MEAN_MOTION_DOT":-0.00042013,"MEAN_MOTION_DDOT":0},{"OBJECT_NAME":"STARLINK-36941","OBJECT_ID":"2026-039F","EPOCH":"2026-03-23T22:47:18.404448","MEAN_MOTION":15.50579418,"ECCENTRICITY":0.0002125,"INCLINATION":43.0005,"RA_OF_ASC_NODE":330.2124,"ARG_OF_PERICENTER":274.1173,"MEAN_ANOMALY":85.9444,"EPHEMERIS_TYPE":0,"CLASSIFICATION_TYPE":"U","NORAD_CAT_ID":67991,"ELEMENT_SET_NO":999,"REV_AT_EPOCH":386,"BSTAR":0.0014103901,"MEAN_MOTION_DOT":0.00083288,"MEAN_MOTION_DDOT":0},{"OBJECT_NAME":"STARLINK-36950","OBJECT_ID":"2026-039G","EPOCH":"2026-03-24T08:57:14.946624","MEAN_MOTION":15.50614138,"ECCENTRICITY":0.0002172,"INCLINATION":42.9993,"RA_OF_ASC_NODE":327.3601,"ARG_OF_PERICENTER":260.2575,"MEAN_ANOMALY":99.8039,"EPHEMERIS_TYPE":0,"CLASSIFICATION_TYPE":"U","NORAD_CAT_ID":67992,"ELEMENT_SET_NO":999,"REV_AT_EPOCH":393,"BSTAR":0.0013093,"MEAN_MOTION_DOT":0.00077333,"MEAN_MOTION_DDOT":0},{"OBJECT_NAME":"STARLINK-36975","OBJECT_ID":"2026-039H","EPOCH":"2026-03-23T23:30:35.667072","MEAN_MOTION":15.5057809,"ECCENTRICITY":0.00019692,"INCLINATION":42.9997,"RA_OF_ASC_NODE":329.5617,"ARG_OF_PERICENTER":263.9555,"MEAN_ANOMALY":96.1081,"EPHEMERIS_TYPE":0,"CLASSIFICATION_TYPE":"U","NORAD_CAT_ID":67993,"ELEMENT_SET_NO":999,"REV_AT_EPOCH":387,"BSTAR":0.0013435173,"MEAN_MOTION_DOT":0.00079277,"MEAN_MOTION_DDOT":0},{"OBJECT_NAME":"STARLINK-36993","OBJECT_ID":"2026-039J","EPOCH":"2026-03-24T12:00:01.999296","MEAN_MOTION":15.50213282,"ECCENTRICITY":0.0001334,"INCLINATION":42.9997,"RA_OF_ASC_NODE":325.8097,"ARG_OF_PERICENTER":258.9033,"MEAN_ANOMALY":56.4724,"EPHEMERIS_TYPE":0,"CLASSIFICATION_TYPE":"U","NORAD_CAT_ID":67994,"ELEMENT_SET_NO":999,"REV_AT_EPOCH":525,"BSTAR":-0.038333,"MEAN_MOTION_DOT":-0.01984512,"MEAN_MOTION_DDOT":0},{"OBJECT_NAME":"STARLINK-36968","OBJECT_ID":"2026-039K","EPOCH":"2026-03-24T09:08:02.505120","MEAN_MOTION":15.50616495,"ECCENTRICITY":0.0001127,"INCLINATION":42.9965,"RA_OF_ASC_NODE":327.4181,"ARG_OF_PERICENTER":290.9199,"MEAN_ANOMALY":69.1541,"EPHEMERIS_TYPE":0,"CLASSIFICATION_TYPE":"U","NORAD_CAT_ID":67995,"ELEMENT_SET_NO":999,"REV_AT_EPOCH":393,"BSTAR":0.0012022,"MEAN_MOTION_DOT":0.00070921,"MEAN_MOTION_DDOT":0},{"OBJECT_NAME":"STARLINK-36979","OBJECT_ID":"2026-039L","EPOCH":"2026-03-24T12:00:01.999296","MEAN_MOTION":15.48913289,"ECCENTRICITY":0.0002114,"INCLINATION":42.9997,"RA_OF_ASC_NODE":325.6956,"ARG_OF_PERICENTER":250.628,"MEAN_ANOMALY":110.819,"EPHEMERIS_TYPE":0,"CLASSIFICATION_TYPE":"U","NORAD_CAT_ID":67996,"ELEMENT_SET_NO":999,"REV_AT_EPOCH":525,"BSTAR":-0.038174,"MEAN_MOTION_DOT":-0.01897034,"MEAN_MOTION_DDOT":0},{"OBJECT_NAME":"STARLINK-36994","OBJECT_ID":"2026-039M","EPOCH":"2026-03-24T12:00:01.999296","MEAN_MOTION":15.50514569,"ECCENTRICITY":0.0002135,"INCLINATION":43.0003,"RA_OF_ASC_NODE":326.057,"ARG_OF_PERICENTER":251.4515,"MEAN_ANOMALY":323.8493,"EPHEMERIS_TYPE":0,"CLASSIFICATION_TYPE":"U","NORAD_CAT_ID":67997,"ELEMENT_SET_NO":999,"REV_AT_EPOCH":525,"BSTAR":0.0014131,"MEAN_MOTION_DOT":0.00083255,"MEAN_MOTION_DDOT":0}]
