STARLINK-36879          
1 67982U 26038X   26083.44863125  .00061783  00000+0  11273-2 0  9993
2 67982  97.2871  94.2339 0000899  70.6342 289.5006 15.49226708  5498
STARLINK-36867          
1 67983U 26038Y   26083.49995521  .00058068  00000+0  10613-2 0  9994
2 67983  97.2861  94.3173 0001366  74.4568 285.6834 15.49193586  5502
STARLINK-36266          
1 67984U 26038Z   26083.50002314 -.02163329  00000+0 -52858-1 0  9993
2 67984  97.2853  94.4651 0001791 105.3195 231.9954 15.44510338  5553
STARLINK-36802          
1 67985U 26038AA  26083.18864169  .00191706  00000+0  12486-2 0  9992
2 67985  97.2888  94.2704 0002032  47.7218 312.4219 15.75354715  5472
STARLINK-36535          
1 67986U 26039A   26083.50002314 -.01872293  00000+0 -49367-1 0  9993
2 67986  42.9998 326.0307 0001105 269.3643 318.5292 15.41047292  5257
STARLINK-36744          
1 67987U 26039B   26083.50002314 -.01859818  00000+0 -45413-1 0  9990
2 67987  42.9990 325.8813 0001302 241.2246  46.9903 15.43294403  5257
STARLINK-36734          
1 67988U 26039C   26083.40104048  .00058172  00000+0  98900-3 0  9999
2 67988  42.9959 327.5820 0000872 249.0868 110.9899 15.50608586  3935
STARLINK-36957          
1 67989U 26039D   26083.50002314 -.01878350  00000+0 -41935-1 0  9999
2 67989  42.9996 325.9024 0001251 246.7237  32.6553 15.45931193  5252
STARLINK-36951          
1 67990U 26039E   26083.50002314 -.00042013  00000+0 -71377-3 0  9994
2 67990  43.0000 326.1347 0001652 263.1836 281.3106 15.50593576  5258
STARLINK-36941          
1 67991U 26039F   26082.94951857  .00083288  00000+0  14104-2 0  9998
2 67991  43.0005 330.2124 0002125 274.1173  85.9444 15.50579418  3862
STARLINK-36950          
1 67992U 26039G   26083.37308966  .00077333  00000+0  13093-2 0  9994
2 67992  42.9993 327.3601 0002172 260.2575  99.8039 15.50614138  3939
STARLINK-36975          
1 67993U 26039H   26082.97957948  .00079277  00000+0  13435-2 0  9999
2 67993  42.9997 329.5617 0001969 263.9555  96.1081 15.50578090  3872
STARLINK-36993          
1 67994U 26039J   26083.50002314 -.01984512  00000+0 -38333-1 0  9991
2 67994  42.9997 325.8097 0001334 258.9033  56.4724 15.50213282  5251
STARLINK-36968          
1 67995U 26039K   26083.38058455  .00070921  00000+0  12022-2 0  9990
2 67995  42.9965 327.4181 0001127 290.9199  69.1541 15.50616495  3932
STARLINK-36979          
1 67996U 26039L   26083.50002314 -.01897034  00000+0 -38174-1 0  9998
2 67996  42.9997 325.6956 0002114 250.6280 110.8190 15.48913289  5258
STARLINK-36994          
1 67997U 26039M   26083.50002314  .00083255  00000+0  14131-2 0  9996
2 67997  43.0003 326.0570 0002135 251.4515 323.8493 15.50514569  5252
